{"type": "FeatureCollection", "features": [ {"type": "Feature", "properties": {"norad_id": 30846, "name": "FENGYUN 1C DEB", "group": "fengyun-1c-debris", "lat": 38.86747370624122, "lon": -5.896811446493713, "alt_km": 788.7771078596643, "timestamp": "2025-12-18T17:50:15.235948+00:00", "meta": {"OBJECT_NAME": "FENGYUN 1C DEB", "OBJECT_ID": "1999-025AWG", "EPOCH": "2025-12-18T06:21:15.576768", "MEAN_MOTION": 14.41570467, "ECCENTRICITY": 0.00539347, "INCLINATION": 99.3206, "RA_OF_ASC_NODE": 165.9753, "ARG_OF_PERICENTER": 320.2111, "MEAN_ANOMALY": 218.547, "EPHEMERIS_TYPE": 0, "CLASSIFICATION_TYPE": "U", "NORAD_CAT_ID": 30846, "ELEMENT_SET_NO": 999, "REV_AT_EPOCH": 98009, "BSTAR": 0.00063086416, "MEAN_MOTION_DOT": 2.035e-05, "MEAN_MOTION_DDOT": 0}, "tle": {"line1": "1 30846U 99025AWG 25352.26476362  .00002035  00000+0  63086-3 0  9994", "line2": "2 30846  99.3206 165.9753 0053934 320.2111 218.5470 14.41570467980094"}}, "geometry": {"type": "Point", "coordinates": [-5.896811446493713, 38.86747370624122]}}, {"type": "Feature", "properties": {"norad_id": 30847, "name": "FENGYUN 1C DEB", "group": "fengyun-1c-debris", "lat": 42.96649744837681, "lon": 144.5601745078401, "alt_km": 833.7035338171081, "timestamp": "2025-12-18T17:50:15.235959+00:00", "meta": {"OBJECT_NAME": "FENGYUN 1C DEB", "OBJECT_ID": "1999-025AWH", "EPOCH": "2025-12-17T22:01:32.569248", "MEAN_MOTION": 14.17059037, "ECCENTRICITY": 0.00655122, "INCLINATION": 98.731, "RA_OF_ASC_NODE": 151.979, "ARG_OF_PERICENTER": 313.2265, "MEAN_ANOMALY": 200.8715, "EPHEMERIS_TYPE": 0, "CLASSIFICATION_TYPE": "U", "NORAD_CAT_ID": 30847, "ELEMENT_SET_NO": 999, "REV_AT_EPOCH": 96128, "BSTAR": 0.001563633, "MEAN_MOTION_DOT": 3.169e-05, "MEAN_MOTION_DDOT": 0}, "tle": {"line1": "1 30847U 99025AWH 25351.91773807  .00003169  00000+0  15636-2 0  9996", "line2": "2 30847  98.7310 151.9790 0065512 313.2265 200.8715 14.17059037961281"}}, "geometry": {"type": "Point", "coordinates": [144.5601745078401, 42.96649744837681]}}, {"type": "Feature", "properties": {"norad_id": 30848, "name": "FENGYUN 1C DEB", "group": "fengyun-1c-debris", "lat": 19.369904939628277, "lon": 11.083706957548799, "alt_km": 805.7885925672326, "timestamp": "2025-12-18T17:50:15.235969+00:00", "meta": {"OBJECT_NAME": "FENGYUN 1C DEB", "OBJECT_ID": "1999-025AWJ", "EPOCH": "2025-12-15T12:05:14.138304", "MEAN_MOTION": 14.34503619, "ECCENTRICITY": 0.00437809, "INCLINATION": 99.0595, "RA_OF_ASC_NODE": 184.4736, "ARG_OF_PERICENTER": 327.7102, "MEAN_ANOMALY": 32.1403, "EPHEMERIS_TYPE": 0, "CLASSIFICATION_TYPE": "U", "NORAD_CAT_ID": 30848, "ELEMENT_SET_NO": 999, "REV_AT_EPOCH": 97346, "BSTAR": 0.0009032154, "MEAN_MOTION_DOT": 2.527e-05, "MEAN_MOTION_DDOT": 0}, "tle": {"line1": "1 30848U 99025AWJ 25349.50363586  .00002527  00000+0  90322-3 0  9991", "line2": "2 30848  99.0595 184.4736 0043780 327.7102  32.1403 14.34503619973467"}}, "geometry": {"type": "Point", "coordinates": [11.083706957548799, 19.369904939628277]}}, {"type": "Feature", "properties": {"norad_id": 30849, "name": "FENGYUN 1C DEB", "group": "fengyun-1c-debris", "lat": -53.85730647547493, "lon": -139.73685564254788, "alt_km": 849.9349607852637, "timestamp": "2025-12-18T17:50:15.235979+00:00", "meta": {"OBJECT_NAME": "FENGYUN 1C DEB", "OBJECT_ID": "1999-025AWK", "EPOCH": "2025-12-18T03:17:18.951360", "MEAN_MOTION": 14.188856, "ECCENTRICITY": 0.00479201, "INCLINATION": 99.0481, "RA_OF_ASC_NODE": 52.2467, "ARG_OF_PERICENTER": 350.4237, "MEAN_ANOMALY": 30.0892, "EPHEMERIS_TYPE": 0, "CLASSIFICATION_TYPE": "U", "NORAD_CAT_ID": 30849, "ELEMENT_SET_NO": 999, "REV_AT_EPOCH": 96449, "BSTAR": 0.0010532237, "MEAN_MOTION_DOT": 2.172e-05, "MEAN_MOTION_DDOT": 0}, "tle": {"line1": "1 30849U 99025AWK 25352.13702490  .00002172  00000+0  10532-2 0  9996", "line2": "2 30849  99.0481  52.2467 0047920 350.4237  30.0892 14.18885600964494"}}, "geometry": {"type": "Point", "coordinates": [-139.73685564254788, -53.85730647547493]}}, {"type": "Feature", "properties": {"norad_id": 30850, "name": "FENGYUN 1C DEB", "group": "fengyun-1c-debris", "lat": 69.24794300671778, "lon": 60.843214565569866, "alt_km": 805.0494155335991, "timestamp": "2025-12-18T17:50:15.235989+00:00", "meta": {"OBJECT_NAME": "FENGYUN 1C DEB", "OBJECT_ID": "1999-025AWL", "EPOCH": "2025-12-17T14:30:57.177216", "MEAN_MOTION": 14.16320929, "ECCENTRICITY": 0.01091735, "INCLINATION": 98.3949, "RA_OF_ASC_NODE": 216.832, "ARG_OF_PERICENTER": 183.6129, "MEAN_ANOMALY": 245.4152, "EPHEMERIS_TYPE": 0, "CLASSIFICATION_TYPE": "U", "NORAD_CAT_ID": 30850, "ELEMENT_SET_NO": 999, "REV_AT_EPOCH": 95867, "BSTAR": 0.0013128061, "MEAN_MOTION_DOT": 2.721e-05, "MEAN_MOTION_DDOT": 0}, "tle": {"line1": "1 30850U 99025AWL 25351.60482844  .00002721  00000+0  13128-2 0  9991", "line2": "2 30850  98.3949 216.8320 0109173 183.6129 245.4152 14.16320929958678"}}, "geometry": {"type": "Point", "coordinates": [60.843214565569866, 69.24794300671778]}}, {"type": "Feature", "properties": {"norad_id": 30852, "name": "FENGYUN 1C DEB", "group": "fengyun-1c-debris", "lat": -33.87341610982568, "lon": 16.244277116032222, "alt_km": 877.0827760095963, "timestamp": "2025-12-18T17:50:15.235999+00:00", "meta": {"OBJECT_NAME": "FENGYUN 1C DEB", "OBJECT_ID": "1999-025AWN", "EPOCH": "2025-12-18T00:58:25.410432", "MEAN_MOTION": 14.10293857, "ECCENTRICITY": 0.00560315, "INCLINATION": 98.7334, "RA_OF_ASC_NODE": 9.6391, "ARG_OF_PERICENTER": 219.3702, "MEAN_ANOMALY": 140.3391, "EPHEMERIS_TYPE": 0, "CLASSIFICATION_TYPE": "U", "NORAD_CAT_ID": 30852, "ELEMENT_SET_NO": 999, "REV_AT_EPOCH": 96457, "BSTAR": 0.00042747986, "MEAN_MOTION_DOT": 7.26e-06, "MEAN_MOTION_DDOT": 0}, "tle": {"line1": "1 30852U 99025AWN 25352.04057188  .00000726  00000+0  42748-3 0  9995", "line2": "2 30852  98.7334   9.6391 0056031 219.3702 140.3391 14.10293857964573"}}, "geometry": {"type": "Point", "coordinates": [16.244277116032222, -33.87341610982568]}}, {"type": "Feature", "properties": {"norad_id": 30856, "name": "FENGYUN 1C DEB", "group": "fengyun-1c-debris", "lat": 6.981816687505747, "lon": -1.6504718148678066, "alt_km": 697.3980731792144, "timestamp": "2025-12-18T17:50:15.236009+00:00", "meta": {"OBJECT_NAME": "FENGYUN 1C DEB", "OBJECT_ID": "1999-025AWS", "EPOCH": "2025-12-17T11:17:31.756416", "MEAN_MOTION": 14.4633817, "ECCENTRICITY": 0.00876084, "INCLINATION": 98.1983, "RA_OF_ASC_NODE": 176.1067, "ARG_OF_PERICENTER": 224.5578, "MEAN_ANOMALY": 165.9609, "EPHEMERIS_TYPE": 0, "CLASSIFICATION_TYPE": "U", "NORAD_CAT_ID": 30856, "ELEMENT_SET_NO": 999, "REV_AT_EPOCH": 96594, "BSTAR": 0.0038538132, "MEAN_MOTION_DOT": 0.00014481, "MEAN_MOTION_DDOT": 0}, "tle": {"line1": "1 30856U 99025AWS 25351.47050644  .00014481  00000+0  38538-2 0  9999", "line2": "2 30856  98.1983 176.1067 0087608 224.5578 165.9609 14.46338170965948"}}, "geometry": {"type": "Point", "coordinates": [-1.6504718148678066, 6.981816687505747]}}, {"type": "Feature", "properties": {"norad_id": 30857, "name": "FENGYUN 1C DEB", "group": "fengyun-1c-debris", "lat": 56.116202133572685, "lon": 176.52055512347712, "alt_km": 740.7668608851318, "timestamp": "2025-12-18T17:50:15.236019+00:00", "meta": {"OBJECT_NAME": "FENGYUN 1C DEB", "OBJECT_ID": "1999-025AWT", "EPOCH": "2025-12-10T22:20:28.597056", "MEAN_MOTION": 14.51403304, "ECCENTRICITY": 0.0041899, "INCLINATION": 98.9745, "RA_OF_ASC_NODE": 334.5727, "ARG_OF_PERICENTER": 300.5616, "MEAN_ANOMALY": 59.1445, "EPHEMERIS_TYPE": 0, "CLASSIFICATION_TYPE": "U", "NORAD_CAT_ID": 30857, "ELEMENT_SET_NO": 999, "REV_AT_EPOCH": 96697, "BSTAR": 0.0076916, "MEAN_MOTION_DOT": 0.0003112, "MEAN_MOTION_DDOT": 0}, "tle": {"line1": "1 30857U 99025AWT 25344.93088654  .00031120  00000+0  76916-2 0  9996", "line2": "2 30857  98.9745 334.5727 0041899 300.5616  59.1445 14.51403304966970"}}, "geometry": {"type": "Point", "coordinates": [176.52055512347712, 56.116202133572685]}}, {"type": "Feature", "properties": {"norad_id": 30858, "name": "FENGYUN 1C DEB", "group": "fengyun-1c-debris", "lat": 66.59444276148709, "lon": -108.7156809818298, "alt_km": 805.3188527394423, "timestamp": "2025-12-18T17:50:15.236029+00:00", "meta": {"OBJECT_NAME": "FENGYUN 1C DEB", "OBJECT_ID": "1999-025AWU", "EPOCH": "2025-12-18T02:12:52.811424", "MEAN_MOTION": 14.17789125, "ECCENTRICITY": 0.00307009, "INCLINATION": 98.7985, "RA_OF_ASC_NODE": 49.6738, "ARG_OF_PERICENTER": 95.0009, "MEAN_ANOMALY": 295.9877, "EPHEMERIS_TYPE": 0, "CLASSIFICATION_TYPE": "U", "NORAD_CAT_ID": 30858, "ELEMENT_SET_NO": 999, "REV_AT_EPOCH": 97056, "BSTAR": 0.00031547603, "MEAN_MOTION_DOT": 6.03e-06, "MEAN_MOTION_DDOT": 0}, "tle": {"line1": "1 30858U 99025AWU 25352.09227791  .00000603  00000+0  31548-3 0  9995", "line2": "2 30858  98.7985  49.6738 0030700  95.0009 295.9877 14.17789125970561"}}, "geometry": {"type": "Point", "coordinates": [-108.7156809818298, 66.59444276148709]}}, {"type": "Feature", "properties": {"norad_id": 30859, "name": "FENGYUN 1C DEB", "group": "fengyun-1c-debris", "lat": 33.000380317887824, "lon": -130.93809572417538, "alt_km": 741.5222148611865, "timestamp": "2025-12-18T17:50:15.236039+00:00", "meta": {"OBJECT_NAME": "FENGYUN 1C DEB", "OBJECT_ID": "1999-025AWV", "EPOCH": "2025-12-18T02:15:07.157376", "MEAN_MOTION": 14.49172256, "ECCENTRICITY": 0.00307989, "INCLINATION": 98.9219, "RA_OF_ASC_NODE": 42.5203, "ARG_OF_PERICENTER": 14.122, "MEAN_ANOMALY": 346.0826, "EPHEMERIS_TYPE": 0, "CLASSIFICATION_TYPE": "U", "NORAD_CAT_ID": 30859, "ELEMENT_SET_NO": 999, "REV_AT_EPOCH": 97112, "BSTAR": 0.0020574551, "MEAN_MOTION_DOT": 7.835e-05, "MEAN_MOTION_DDOT": 0}, "tle": {"line1": "1 30859U 99025AWV 25352.09383284  .00007835  00000+0  20575-2 0  9997", "line2": "2 30859  98.9219  42.5203 0030798  14.1220 346.0826 14.49172256971128"}}, "geometry": {"type": "Point", "coordinates": [-130.93809572417538, 33.000380317887824]}}]}